{
  "type": "FeatureCollection",
  "features": [
    {
      "type": "Feature",
      "properties": {
        "norad_id": 38867,
        "name": "INTELSAT 23 (IS-23)",
        "group": "intelsat",
        "lat": 0.019195461862243433,
        "lon": 77.17033536143117,
        "alt_km": 35792.34255234476,
        "timestamp": "2025-12-04T03:47:54.221766+00:00",
        "meta_object_name": "INTELSAT 23 (IS-23)",
        "meta_object_id": "2012-057A",
        "meta_epoch": "2025-12-03T08:21:59.193792",
        "meta_mean_motion": 1.00269988,
        "meta_eccentricity": 0.0001762,
        "meta_inclination": 0.0465,
        "meta_ra_of_asc_node": 117.5888,
        "meta_arg_of_pericenter": 98.834,
        "meta_mean_anomaly": 288.5116,
        "meta_ephemeris_type": 0,
        "meta_classification_type": "U",
        "meta_norad_cat_id": 38867,
        "meta_element_set_no": 999,
        "meta_rev_at_epoch": 4799,
        "meta_bstar": 0,
        "meta_mean_motion_dot": -2.66e-06,
        "meta_mean_motion_ddot": 0,
        "tle_line1": "1 38867U 12057A   25337.34860178 -.00000266  00000+0  00000+0 0  9997",
        "tle_line2": "2 38867   0.0465 117.5888 0001762  98.8340 288.5116  1.00269988 47998"
      },
      "geometry": {
        "type": "Point",
        "coordinates": [
          77.17033536143117,
          0.019195461862243433
        ]
      }
    },
    {
      "type": "Feature",
      "properties": {
        "norad_id": 39360,
        "name": "FM-6",
        "group": "intelsat",
        "lat": -0.012806014554580837,
        "lon": 14.015442754420327,
        "alt_km": 35797.56519942011,
        "timestamp": "2025-12-04T03:47:54.221778+00:00",
        "meta_object_name": "FM-6",
        "meta_object_id": "2013-058A",
        "meta_epoch": "2025-12-03T09:46:43.577184",
        "meta_mean_motion": 1.00270039,
        "meta_eccentricity": 0.0002808,
        "meta_inclination": 0.0045,
        "meta_ra_of_asc_node": 100.0158,
        "meta_arg_of_pericenter": 73.0769,
        "meta_mean_anomaly": 289.9269,
        "meta_ephemeris_type": 0,
        "meta_classification_type": "U",
        "meta_norad_cat_id": 39360,
        "meta_element_set_no": 999,
        "meta_rev_at_epoch": 4411,
        "meta_bstar": 0,
        "meta_mean_motion_dot": 2e-08,
        "meta_mean_motion_ddot": 0,
        "tle_line1": "1 39360U 13058A   25337.40744881  .00000002  00000+0  00000+0 0  9994",
        "tle_line2": "2 39360   0.0045 100.0158 0002808  73.0769 289.9269  1.00270039 44114"
      },
      "geometry": {
        "type": "Point",
        "coordinates": [
          14.015442754420327,
          -0.012806014554580837
        ]
      }
    },
    {
      "type": "Feature",
      "properties": {
        "norad_id": 40271,
        "name": "INTELSAT 30 (IS-30)",
        "group": "intelsat",
        "lat": 0.023668554350193226,
        "lon": 35.12472629360112,
        "alt_km": 35782.98447715996,
        "timestamp": "2025-12-04T03:47:54.221790+00:00",
        "meta_object_name": "INTELSAT 30 (IS-30)",
        "meta_object_id": "2014-062A",
        "meta_epoch": "2025-12-03T13:18:15.813216",
        "meta_mean_motion": 1.0026974,
        "meta_eccentricity": 0.0001185,
        "meta_inclination": 0.015,
        "meta_ra_of_asc_node": 10.642,
        "meta_arg_of_pericenter": 67.2421,
        "meta_mean_anomaly": 99.2718,
        "meta_ephemeris_type": 0,
        "meta_classification_type": "U",
        "meta_norad_cat_id": 40271,
        "meta_element_set_no": 999,
        "meta_rev_at_epoch": 482,
        "meta_bstar": 0,
        "meta_mean_motion_dot": -1.33e-06,
        "meta_mean_motion_ddot": 0,
        "tle_line1": "1 40271U 14062A   25337.55434969 -.00000133  00000+0  00000+0 0  9998",
        "tle_line2": "2 40271   0.0150  10.6420 0001185  67.2421  99.2718  1.00269740  4821"
      },
      "geometry": {
        "type": "Point",
        "coordinates": [
          35.12472629360112,
          0.023668554350193226
        ]
      }
    },
    {
      "type": "Feature",
      "properties": {
        "norad_id": 40333,
        "name": "DIRECTV 14",
        "group": "intelsat",
        "lat": 0.039921623073606805,
        "lon": 30.976975708831734,
        "alt_km": 35788.25510622051,
        "timestamp": "2025-12-04T03:47:54.221801+00:00",
        "meta_object_name": "DIRECTV 14",
        "meta_object_id": "2014-078B",
        "meta_epoch": "2025-12-03T13:17:00.932064",
        "meta_mean_motion": 1.00273104,
        "meta_eccentricity": 6e-05,
        "meta_inclination": 0.0174,
        "meta_ra_of_asc_node": 324.7711,
        "meta_arg_of_pericenter": 245.1264,
        "meta_mean_anomaly": 322.7814,
        "meta_ephemeris_type": 0,
        "meta_classification_type": "U",
        "meta_norad_cat_id": 40333,
        "meta_element_set_no": 999,
        "meta_rev_at_epoch": 4008,
        "meta_bstar": 0,
        "meta_mean_motion_dot": -1.08e-06,
        "meta_mean_motion_ddot": 0,
        "tle_line1": "1 40333U 14078B   25337.55348301 -.00000108  00000+0  00000+0 0  9990",
        "tle_line2": "2 40333   0.0174 324.7711 0000600 245.1264 322.7814  1.00273104 40089"
      },
      "geometry": {
        "type": "Point",
        "coordinates": [
          30.976975708831734,
          0.039921623073606805
        ]
      }
    },
    {
      "type": "Feature",
      "properties": {
        "norad_id": 40663,
        "name": "DIRECTV 15",
        "group": "intelsat",
        "lat": 0.00010707131780838836,
        "lon": 27.31709970085131,
        "alt_km": 35788.42086760352,
        "timestamp": "2025-12-04T03:47:54.221813+00:00",
        "meta_object_name": "DIRECTV 15",
        "meta_object_id": "2015-026A",
        "meta_epoch": "2025-12-03T16:41:14.396064",
        "meta_mean_motion": 1.00270168,
        "meta_eccentricity": 4.61e-05,
        "meta_inclination": 0.0439,
        "meta_ra_of_asc_node": 95.4072,
        "meta_arg_of_pericenter": 127.1851,
        "meta_mean_anomaly": 357.6265,
        "meta_ephemeris_type": 0,
        "meta_classification_type": "U",
        "meta_norad_cat_id": 40663,
        "meta_element_set_no": 999,
        "meta_rev_at_epoch": 3850,
        "meta_bstar": 0,
        "meta_mean_motion_dot": -8.5e-07,
        "meta_mean_motion_ddot": 0,
        "tle_line1": "1 40663U 15026A   25337.69530551 -.00000085  00000+0  00000+0 0  9999",
        "tle_line2": "2 40663   0.0439  95.4072 0000461 127.1851 357.6265  1.00270168 38505"
      },
      "geometry": {
        "type": "Point",
        "coordinates": [
          27.31709970085131,
          0.00010707131780838836
        ]
      }
    },
    {
      "type": "Feature",
      "properties": {
        "norad_id": 40664,
        "name": "SKY MEXICO-1",
        "group": "intelsat",
        "lat": 0.04142543364498182,
        "lon": 51.44698536060644,
        "alt_km": 35796.12686346584,
        "timestamp": "2025-12-04T03:47:54.221824+00:00",
        "meta_object_name": "SKY MEXICO-1",
        "meta_object_id": "2015-026B",
        "meta_epoch": "2025-12-03T13:22:52.871232",
        "meta_mean_motion": 1.00270473,
        "meta_eccentricity": 0.0002774,
        "meta_inclination": 0.0171,
        "meta_ra_of_asc_node": 337.602,
        "meta_arg_of_pericenter": 288.9303,
        "meta_mean_anomaly": 288.0745,
        "meta_ephemeris_type": 0,
        "meta_classification_type": "U",
        "meta_norad_cat_id": 40664,
        "meta_element_set_no": 999,
        "meta_rev_at_epoch": 3849,
        "meta_bstar": 0,
        "meta_mean_motion_dot": -2.16e-06,
        "meta_mean_motion_ddot": 0,
        "tle_line1": "1 40664U 15026B   25337.55755638 -.00000216  00000+0  00000+0 0  9996",
        "tle_line2": "2 40664   0.0171 337.6020 0002774 288.9303 288.0745  1.00270473 38497"
      },
      "geometry": {
        "type": "Point",
        "coordinates": [
          51.44698536060644,
          0.04142543364498182
        ]
      }
    },
    {
      "type": "Feature",
      "properties": {
        "norad_id": 40874,
        "name": "INTELSAT 34 (IS-34)",
        "group": "intelsat",
        "lat": 0.030455084436589057,
        "lon": 74.68112707051755,
        "alt_km": 35786.80504559212,
        "timestamp": "2025-12-04T03:47:54.221835+00:00",
        "meta_object_name": "INTELSAT 34 (IS-34)",
        "meta_object_id": "2015-039A",
        "meta_epoch": "2025-12-03T16:54:58.080960",
        "meta_mean_motion": 1.00270117,
        "meta_eccentricity": 5.14e-05,
        "meta_inclination": 0.0121,
        "meta_ra_of_asc_node": 303.8386,
        "meta_arg_of_pericenter": 226.1914,
        "meta_mean_anomaly": 101.0018,
        "meta_ephemeris_type": 0,
        "meta_classification_type": "U",
        "meta_norad_cat_id": 40874,
        "meta_element_set_no": 999,
        "meta_rev_at_epoch": 3766,
        "meta_bstar": 0,
        "meta_mean_motion_dot": -2.68e-06,
        "meta_mean_motion_ddot": 0,
        "tle_line1": "1 40874U 15039A   25337.70483890 -.00000268  00000+0  00000+0 0  9995",
        "tle_line2": "2 40874   0.0121 303.8386 0000514 226.1914 101.0018  1.00270117 37667"
      },
      "geometry": {
        "type": "Point",
        "coordinates": [
          74.68112707051755,
          0.030455084436589057
        ]
      }
    }
  ]
}